{
  "type": "FeatureCollection",
  "features": [
    {
      "type": "Feature",
      "properties": {
        "norad_id": 37238,
        "name": "INTELSAT 17 (IS-17)",
        "group": "intelsat",
        "lat": -0.038792657782591534,
        "lon": -40.6113954174323,
        "alt_km": 35774.186015724204,
        "timestamp": "2025-12-27T10:28:58.457921+00:00",
        "meta_object_name": "INTELSAT 17 (IS-17)",
        "meta_object_id": "2010-065B",
        "meta_epoch": "2025-12-27T03:02:35.428416",
        "meta_mean_motion": 1.00272098,
        "meta_eccentricity": 0.0002945,
        "meta_inclination": 0.0312,
        "meta_ra_of_asc_node": 75.3085,
        "meta_arg_of_pericenter": 225.7235,
        "meta_mean_anomaly": 266.4513,
        "meta_ephemeris_type": 0,
        "meta_classification_type": "U",
        "meta_norad_cat_id": 37238,
        "meta_element_set_no": 999,
        "meta_rev_at_epoch": 5152,
        "meta_bstar": 0,
        "meta_mean_motion_dot": 0,
        "meta_mean_motion_ddot": 0,
        "tle_line1": "1 37238U 10065B   25361.12679894  .00000000  00000+0  00000+0 0  9996",
        "tle_line2": "2 37238   0.0312  75.3085 0002945 225.7235 266.4513  1.00272098 51524"
      },
      "geometry": {
        "type": "Point",
        "coordinates": [
          -40.6113954174323,
          -0.038792657782591534
        ]
      }
    },
    {
      "type": "Feature",
      "properties": {
        "norad_id": 37392,
        "name": "INTELSAT 28 (IS-28)",
        "group": "intelsat",
        "lat": 0.9220737917157326,
        "lon": -138.32780702842118,
        "alt_km": 35776.2236895059,
        "timestamp": "2025-12-27T10:28:58.457932+00:00",
        "meta_object_name": "INTELSAT 28 (IS-28)",
        "meta_object_id": "2011-016A",
        "meta_epoch": "2025-12-27T02:34:45.592032",
        "meta_mean_motion": 1.00271118,
        "meta_eccentricity": 0.000386,
        "meta_inclination": 1.3598,
        "meta_ra_of_asc_node": 84.8973,
        "meta_arg_of_pericenter": 189.2455,
        "meta_mean_anomaly": 188.6848,
        "meta_ephemeris_type": 0,
        "meta_classification_type": "U",
        "meta_norad_cat_id": 37392,
        "meta_element_set_no": 999,
        "meta_rev_at_epoch": 5156,
        "meta_bstar": 0,
        "meta_mean_motion_dot": -2.03e-06,
        "meta_mean_motion_ddot": 0,
        "tle_line1": "1 37392U 11016A   25361.10747213 -.00000203  00000+0  00000+0 0  9999",
        "tle_line2": "2 37392   1.3598  84.8973 0003860 189.2455 188.6848  1.00271118 51563"
      },
      "geometry": {
        "type": "Point",
        "coordinates": [
          -138.32780702842118,
          0.9220737917157326
        ]
      }
    },
    {
      "type": "Feature",
      "properties": {
        "norad_id": 37834,
        "name": "INTELSAT 18 (IS-18)",
        "group": "intelsat",
        "lat": 0.020576558804305544,
        "lon": 73.41667228131259,
        "alt_km": 35792.67850772008,
        "timestamp": "2025-12-27T10:28:58.457944+00:00",
        "meta_object_name": "INTELSAT 18 (IS-18)",
        "meta_object_id": "2011-056A",
        "meta_epoch": "2025-12-27T01:52:27.147072",
        "meta_mean_motion": 1.00271983,
        "meta_eccentricity": 0.0001994,
        "meta_inclination": 0.0131,
        "meta_ra_of_asc_node": 303.824,
        "meta_arg_of_pericenter": 347.336,
        "meta_mean_anomaly": 12.7657,
        "meta_ephemeris_type": 0,
        "meta_classification_type": "U",
        "meta_norad_cat_id": 37834,
        "meta_element_set_no": 999,
        "meta_rev_at_epoch": 5208,
        "meta_bstar": 0,
        "meta_mean_motion_dot": 7.5e-07,
        "meta_mean_motion_ddot": 0,
        "tle_line1": "1 37834U 11056A   25361.07809198  .00000075  00000+0  00000+0 0  9997",
        "tle_line2": "2 37834   0.0131 303.8240 0001994 347.3360  12.7657  1.00271983 52085"
      },
      "geometry": {
        "type": "Point",
        "coordinates": [
          73.41667228131259,
          0.020576558804305544
        ]
      }
    },
    {
      "type": "Feature",
      "properties": {
        "norad_id": 38098,
        "name": "INTELSAT 22 (IS-22)",
        "group": "intelsat",
        "lat": -0.0465422040004135,
        "lon": -34.502940479134615,
        "alt_km": 35778.905429112696,
        "timestamp": "2025-12-27T10:28:58.457971+00:00",
        "meta_object_name": "INTELSAT 22 (IS-22)",
        "meta_object_id": "2012-011A",
        "meta_epoch": "2025-12-27T03:04:20.260128",
        "meta_mean_motion": 1.00270695,
        "meta_eccentricity": 0.0001958,
        "meta_inclination": 0.0346,
        "meta_ra_of_asc_node": 54.9958,
        "meta_arg_of_pericenter": 245.4385,
        "meta_mean_anomaly": 273.5982,
        "meta_ephemeris_type": 0,
        "meta_classification_type": "U",
        "meta_norad_cat_id": 38098,
        "meta_element_set_no": 999,
        "meta_rev_at_epoch": 546,
        "meta_bstar": 0,
        "meta_mean_motion_dot": 0,
        "meta_mean_motion_ddot": 0,
        "tle_line1": "1 38098U 12011A   25361.12801227  .00000000  00000+0  00000+0 0  9991",
        "tle_line2": "2 38098   0.0346  54.9958 0001958 245.4385 273.5982  1.00270695  5468"
      },
      "geometry": {
        "type": "Point",
        "coordinates": [
          -34.502940479134615,
          -0.0465422040004135
        ]
      }
    },
    {
      "type": "Feature",
      "properties": {
        "norad_id": 38356,
        "name": "INTELSAT 19 (IS-19)",
        "group": "intelsat",
        "lat": 0.02409926317836774,
        "lon": 59.43343601478167,
        "alt_km": 35796.75810788738,
        "timestamp": "2025-12-27T10:28:58.457984+00:00",
        "meta_object_name": "INTELSAT 19 (IS-19)",
        "meta_object_id": "2012-030A",
        "meta_epoch": "2025-12-27T03:04:38.558784",
        "meta_mean_motion": 1.00271928,
        "meta_eccentricity": 0.0003054,
        "meta_inclination": 0.0096,
        "meta_ra_of_asc_node": 355.6735,
        "meta_arg_of_pericenter": 277.7039,
        "meta_mean_anomaly": 34.6566,
        "meta_ephemeris_type": 0,
        "meta_classification_type": "U",
        "meta_norad_cat_id": 38356,
        "meta_element_set_no": 999,
        "meta_rev_at_epoch": 4872,
        "meta_bstar": 0,
        "meta_mean_motion_dot": -3.4e-07,
        "meta_mean_motion_ddot": 0,
        "tle_line1": "1 38356U 12030A   25361.12822406 -.00000034  00000+0  00000+0 0  9999",
        "tle_line2": "2 38356   0.0096 355.6735 0003054 277.7039  34.6566  1.00271928 48724"
      },
      "geometry": {
        "type": "Point",
        "coordinates": [
          59.43343601478167,
          0.02409926317836774
        ]
      }
    },
    {
      "type": "Feature",
      "properties": {
        "norad_id": 38740,
        "name": "INTELSAT 20 (IS-20)",
        "group": "intelsat",
        "lat": -0.024132728410177332,
        "lon": -38.08370044887529,
        "alt_km": 35791.91231256931,
        "timestamp": "2025-12-27T10:28:58.457996+00:00",
        "meta_object_name": "INTELSAT 20 (IS-20)",
        "meta_object_id": "2012-043A",
        "meta_epoch": "2025-12-26T23:37:51.657024",
        "meta_mean_motion": 1.00270086,
        "meta_eccentricity": 0.0001654,
        "meta_inclination": 0.0132,
        "meta_ra_of_asc_node": 63.1517,
        "meta_arg_of_pericenter": 118.2124,
        "meta_mean_anomaly": 337.3262,
        "meta_ephemeris_type": 0,
        "meta_classification_type": "U",
        "meta_norad_cat_id": 38740,
        "meta_element_set_no": 999,
        "meta_rev_at_epoch": 4902,
        "meta_bstar": 0,
        "meta_mean_motion_dot": -2e-08,
        "meta_mean_motion_ddot": 0,
        "tle_line1": "1 38740U 12043A   25360.98462566 -.00000002  00000+0  00000+0 0  9995",
        "tle_line2": "2 38740   0.0132  63.1517 0001654 118.2124 337.3262  1.00270086 49023"
      },
      "geometry": {
        "type": "Point",
        "coordinates": [
          -38.08370044887529,
          -0.024132728410177332
        ]
      }
    },
    {
      "type": "Feature",
      "properties": {
        "norad_id": 38749,
        "name": "INTELSAT 21 (IS-21)",
        "group": "intelsat",
        "lat": -0.00800807767487936,
        "lon": -164.60934176680502,
        "alt_km": 35785.032081501544,
        "timestamp": "2025-12-27T10:28:58.458008+00:00",
        "meta_object_name": "INTELSAT 21 (IS-21)",
        "meta_object_id": "2012-045A",
        "meta_epoch": "2025-12-27T03:48:48.229056",
        "meta_mean_motion": 1.00269176,
        "meta_eccentricity": 0.0001956,
        "meta_inclination": 0.0214,
        "meta_ra_of_asc_node": 2.4817,
        "meta_arg_of_pericenter": 270.2297,
        "meta_mean_anomaly": 182.3947,
        "meta_ephemeris_type": 0,
        "meta_classification_type": "U",
        "meta_norad_cat_id": 38749,
        "meta_element_set_no": 999,
        "meta_rev_at_epoch": 4880,
        "meta_bstar": 0,
        "meta_mean_motion_dot": 0,
        "meta_mean_motion_ddot": 0,
        "tle_line1": "1 38749U 12045A   25361.15889154  .00000000  00000+0  00000+0 0  9999",
        "tle_line2": "2 38749   0.0214   2.4817 0001956 270.2297 182.3947  1.00269176 48808"
      },
      "geometry": {
        "type": "Point",
        "coordinates": [
          -164.60934176680502,
          -0.00800807767487936
        ]
      }
    }
  ]
}